{
  "norad_id": 68132,
  "name": "GUOWANG GROUP 20 OBJECT D",
  "history": [
    {
      "epoch": "2026-03-24T19:43:51.842784Z",
      "apogee_km": 893.7757408938087,
      "perigee_km": 890.2625106475907,
      "latitude_deg": 1.3979258197161357e-05,
      "longitude_deg": -109.49397548718008,
      "height_km": 890.8007190073553,
      "semi_major_axis_km": 7270.1561257707,
      "eccentricity": 0.00024162,
      "inclination_deg": 50.0048,
      "raan_deg": 8.7665,
      "arg_perigee_deg": 7.3102,
      "mean_anomaly_deg": 352.7836,
      "mean_motion_rev_day": 14.00513037
    }
  ]
}